NORAD_CAT_ID,OBJECT_NAME,OBJECT_TYPE,EPOCH,MEAN_MOTION,ECCENTRICITY,INCLINATION,RA_OF_ASC_NODE,ARG_OF_PERICENTER,MEAN_ANOMALY,BSTAR,MEAN_MOTION_DOT,MEAN_MOTION_DDOT,TLE_LINE0,TLE_LINE1,TLE_LINE2,SEMIMAJOR_AXIS,PERIOD,APOGEE,PERIGEE,DECAYED
52575.0,STARLINK-3920,PAYLOAD,2024-03-10 21:53:15,15.08836666,0.0001195,53.2165,150.7323,94.5681,265.5448,0.00019525,2.821e-05,0.0,0 STARLINK-3920,1 52575U 22051AR  24070.91197991  .00002821  00000-0  19525-3 0  9991,2 52575  53.2165 150.7323 0001195  94.5681 265.5448 15.08836666101564,6917.891,95.438,540.582,538.929,0.0
52575.0,STARLINK-3920,PAYLOAD,2024-03-11 05:50:11,15.08832312,0.0001355,53.2172,149.2479,94.5793,265.5353,0.00022745,3.333e-05,0.0,0 STARLINK-3920,1 52575U 22051AR  24071.24318363  .00003333  00000-0  22745-3 0  9993,2 52575  53.2172 149.2479 0001355  94.5793 265.5353 15.08832312101681,6917.904,95.438,540.706,538.832,0.0
52575.0,STARLINK-3920,PAYLOAD,2024-03-11 12:11:43,15.08839718,0.0001385,53.2172,148.0601,96.8003,263.3147,0.00021011,3.058e-05,0.0,0 STARLINK-3920,1 52575U 22051AR  24071.50814072  .00003058  00000-0  21011-3 0  9999,2 52575  53.2172 148.0601 0001385  96.8003 263.3147 15.08839718101658,6917.881,95.438,540.704,538.788,0.0
52575.0,STARLINK-3920,PAYLOAD,2024-03-12 21:34:49,15.08841484,0.0001394,53.2172,141.8149,95.62,264.4951,9.5605e-05,1.234e-05,0.0,0 STARLINK-3920,1 52575U 22051AR  24072.89918218  .00001234  00000-0  95605-4 0  9994,2 52575  53.2172 141.8149 0001394  95.6200 264.4951 15.08841484101863,6917.876,95.437,540.705,538.777,0.0
52575.0,STARLINK-3920,PAYLOAD,2024-03-13 03:56:22,15.08834299,0.0001357,53.2166,140.6246,91.7732,268.3415,0.00020803,3.024e-05,0.0,0 STARLINK-3920,1 52575U 22051AR  24073.16414422  .00003024  00000-0  20803-3 0  9999,2 52575  53.2166 140.6246 0001357  91.7732 268.3415 15.08834299101973,6917.898,95.438,540.702,538.824,0.0
52575.0,STARLINK-3920,PAYLOAD,2024-03-13 11:53:17,15.08846229,0.0001425,53.2167,139.1377,88.9396,271.1759,9.7476e-05,1.264e-05,0.0,0 STARLINK-3920,1 52575U 22051AR  24073.49533882  .00001264  00000-0  97476-4 0  9992,2 52575  53.2167 139.1377 0001425  88.9396 271.1759 15.08846229102028,6917.861,95.437,540.712,538.741,0.0
52575.0,STARLINK-3920,PAYLOAD,2024-03-14 11:44:04,15.08846292,0.0001453,53.2166,134.6766,89.2963,270.8195,8.3798e-05,1.046e-05,0.0,0 STARLINK-3920,1 52575U 22051AR  24074.48893783  .00001046  00000-0  83798-4 0  9991,2 52575  53.2166 134.6766 0001453  89.2963 270.8195 15.08846292102103,6917.861,95.437,540.731,538.721,0.0
52575.0,STARLINK-3920,PAYLOAD,2024-03-15 03:37:56,15.08838514,0.0001715,53.2175,131.7025,86.143,273.9758,2.963e-05,1.84e-06,0.0,0 STARLINK-3920,1 52575U 22051AR  24075.15134604  .00000184  00000-0  29630-4 0  9993,2 52575  53.2175 131.7025 0001715  86.1430 273.9758 15.08838514102270,6917.885,95.438,540.936,538.564,0.0
52575.0,STARLINK-3920,PAYLOAD,2024-03-15 09:59:28,15.08838752,0.0001513,53.2165,130.5126,92.2917,267.8248,7.9653e-06,-1.61e-06,0.0,0 STARLINK-3920,1 52575U 22051AR  24075.41630470 -.00000161  00000-0  79653-5 0  9991,2 52575  53.2165 130.5126 0001513  92.2917 267.8248 15.08838752102249,6917.884,95.438,540.796,538.703,0.0
52575.0,STARLINK-3920,PAYLOAD,2024-03-16 13:01:02,15.08815357,0.0001808,53.2169,125.4553,96.7609,263.3589,0.00050118,7.692e-05,0.0,0 STARLINK-3920,1 52575U 22051AR  24076.54238730  .00007692  00000-0  50118-3 0  9997,2 52575  53.2169 125.4553 0001808  96.7609 263.3589 15.08815357102485,6917.956,95.439,541.071,538.57,0.0
52575.0,STARLINK-3920,PAYLOAD,2024-03-17 12:51:49,15.08835512,0.0001663,53.2168,120.9922,96.4455,263.6727,1.4316e-05,-6e-07,0.0,0 STARLINK-3920,1 52575U 22051AR  24077.53598896 -.00000060  00000-0  14316-4 0  9993,2 52575  53.2168 120.9922 0001663  96.4455 263.6727 15.08835512102638,6917.894,95.438,540.91,538.609,0.0
52575.0,STARLINK-3920,PAYLOAD,2024-03-18 09:31:49,15.08844648,0.000168,53.2169,117.1259,94.4566,265.6618,9.2603e-05,1.186e-05,0.0,0 STARLINK-3920,1 52575U 22051AR  24078.39710160  .00001186  00000-0  92603-4 0  9992,2 52575  53.2169 117.1259 0001680  94.4566 265.6618 15.08844648102765,6917.866,95.437,540.893,538.569,0.0
52575.0,STARLINK-3920,PAYLOAD,2024-03-19 10:58:00,15.08841364,0.0001537,53.2168,112.3703,91.8874,268.2295,8.9047e-05,1.13e-05,0.0,0 STARLINK-3920,1 52575U 22051AR  24079.45694608  .00001130  00000-0  89047-4 0  9995,2 52575  53.2168 112.3703 0001537  91.8874 268.2295 15.08841364102929,6917.876,95.437,540.804,538.678,0.0
52575.0,STARLINK-3920,PAYLOAD,2024-03-20 10:48:46,15.08851033,0.0001677,53.2178,107.9091,99.3169,260.8013,8.1822e-05,1.015e-05,0.0,0 STARLINK-3920,1 52575U 22051AR  24080.45054053  .00001015  00000-0  81822-4 0  9996,2 52575  53.2178 107.9091 0001677  99.3169 260.8013 15.08851033103005,6917.847,95.437,540.872,538.552,0.0
52575.0,STARLINK-3920,PAYLOAD,2024-03-21 10:39:34,15.0884439,0.0001714,53.2168,103.4461,117.2578,242.8589,-2.9679e-05,-7.6e-06,0.0,0 STARLINK-3920,1 52575U 22051AR  24081.44414706 -.00000760  00000-0 -29679-4 0  9991,2 52575  53.2168 103.4461 0001714 117.2578 242.8589 15.08844390103222,6917.867,95.437,540.918,538.546,0.0
52575.0,STARLINK-3920,PAYLOAD,2024-03-22 10:30:20,15.08854827,0.0001754,53.2179,98.9828,78.3881,281.7308,0.00011746,1.583e-05,0.0,0 STARLINK-3920,1 52575U 22051AR  24082.43773916  .00001583  00000-0  11746-3 0  9999,2 52575  53.2179  98.9828 0001754  78.3881 281.7308 15.08854827103370,6917.835,95.437,540.913,538.487,0.0
52575.0,STARLINK-3920,PAYLOAD,2024-03-23 05:34:59,15.08834126,0.0001808,53.2155,95.4186,93.4301,266.6898,3.4248e-05,2.57e-06,0.0,0 STARLINK-3920,1 52575U 22051AR  24083.23263464  .00000257  00000-0  34248-4 0  9990,2 52575  53.2155  95.4186 0001808  93.4301 266.6898 15.08834126103497,6917.898,95.438,541.014,538.513,0.0
52575.0,STARLINK-3920,PAYLOAD,2024-03-23 18:18:04,15.08840015,0.0001811,53.2172,93.0405,87.0755,273.0444,0.00012305,1.671e-05,0.0,0 STARLINK-3920,1 52575U 22051AR  24083.76255498  .00001671  00000-0  12305-3 0  9996,2 52575  53.2172  93.0405 0001811  87.0755 273.0444 15.08840015103505,6917.88,95.438,540.998,538.493,0.0
52575.0,STARLINK-3920,PAYLOAD,2024-03-24 05:25:46,15.08852106,0.000169,53.2158,90.9608,77.0557,283.0624,0.00032495,4.889e-05,0.0,0 STARLINK-3920,1 52575U 22051AR  24084.22622984  .00004889  00000-0  32495-3 0  9992,2 52575  53.2158  90.9608 0001690  77.0557 283.0624 15.08852106103644,6917.843,95.437,540.878,538.539,0.0
52575.0,STARLINK-3920,PAYLOAD,2024-03-24 10:11:55,15.08863218,0.000172,53.216,90.0665,88.005,272.1139,0.00070561,0.00010967,0.0,0 STARLINK-3920,1 52575U 22051AR  24084.42494638  .00010967  00000-0  70561-3 0  9997,2 52575  53.2160  90.0665 0001720  88.0050 272.1139 15.08863218103607,6917.809,95.436,540.864,538.485,0.0
52575.0,STARLINK-3920,PAYLOAD,2024-03-25 05:16:33,15.08854193,0.0001503,53.2161,86.4987,96.6979,263.4185,0.00066408,0.00010301,0.0,0 STARLINK-3920,1 52575U 22051AR  24085.21982919  .00010301  00000-0  66408-3 0  9996,2 52575  53.2161  86.4987 0001503  96.6979 263.4185 15.08854193103794,6917.837,95.437,540.742,538.662,0.0
52575.0,STARLINK-3920,PAYLOAD,2024-03-25 16:24:15,15.08847338,0.0001618,53.2164,84.4168,89.0332,271.0845,0.0010339,0.00016208,0.0,0 STARLINK-3920,1 52575U 22051AR  24085.68351101  .00016208  00000-0  10339-2 0  9993,2 52575  53.2164  84.4168 0001618  89.0332 271.0845 15.08847338103861,6917.858,95.437,540.842,538.604,0.0
52575.0,STARLINK-3920,PAYLOAD,2024-03-26 05:07:21,15.08817297,0.000161,53.2164,82.0375,86.415,273.7026,0.00068767,0.00010666,0.0,0 STARLINK-3920,1 52575U 22051AR  24086.21344685  .00010666  00000-0  68767-3 0  9993,2 52575  53.2164  82.0375 0001610  86.4150 273.7026 15.08817297103946,6917.95,95.439,540.929,538.701,0.0
52575.0,STARLINK-3920,PAYLOAD,2024-03-26 06:42:44,15.08825514,0.0001466,53.2165,81.7418,78.5903,281.5253,0.001061,0.00016631,0.0,0 STARLINK-3920,1 52575U 22051AR  24086.27968736  .00016631  00000-0  10610-2 0  9999,2 52575  53.2165  81.7418 0001466  78.5903 281.5253 15.08825514103881,6917.925,95.438,540.804,538.775,0.0
52575.0,STARLINK-3920,PAYLOAD,2024-03-26 16:15:04,15.08827785,0.000141,53.2166,79.9578,78.9572,281.1579,0.0012741,0.00020041,0.0,0 STARLINK-3920,1 52575U 22051AR  24086.67713302  .00020041  00000-0  12741-2 0  9997,2 52575  53.2166  79.9578 0001410  78.9572 281.1579 15.08827785103949,6917.918,95.438,540.758,538.807,0.0
52575.0,STARLINK-3920,PAYLOAD,2024-03-27 06:33:32,15.0885796,0.000137,53.2165,77.2818,78.359,281.7556,0.0015004,0.00023683,0.0,0 STARLINK-3920,1 52575U 22051AR  24087.27329033  .00023683  00000-0  15004-2 0  9998,2 52575  53.2165  77.2818 0001370  78.3590 281.7556 15.08857960104103,6917.825,95.436,540.638,538.743,0.0
52575.0,STARLINK-3920,PAYLOAD,2024-03-27 22:27:23,15.08854335,0.0001469,53.2168,74.3103,93.9806,266.1354,0.00050887,7.823e-05,0.0,0 STARLINK-3920,1 52575U 22051AR  24087.93568607  .00007823  00000-0  50887-3 0  9990,2 52575  53.2168  74.3103 0001469  93.9806 266.1354 15.08854335104132,6917.837,95.437,540.718,538.685,0.0
52575.0,STARLINK-3920,PAYLOAD,2024-03-28 04:48:55,15.08857816,0.0001307,53.2154,73.1187,83.9139,276.2002,0.00050516,7.765e-05,0.0,0 STARLINK-3920,1 52575U 22051AR  24088.20064369  .00007765  00000-0  50516-3 0  9991,2 52575  53.2154  73.1187 0001307  83.9139 276.2002 15.08857816104246,6917.826,95.436,540.595,538.787,0.0
52575.0,STARLINK-3920,PAYLOAD,2024-03-28 07:59:41,15.08861805,0.0001316,53.2155,72.524,85.0306,275.0836,0.00061296,9.487e-05,0.0,0 STARLINK-3920,1 52575U 22051AR  24088.33312169  .00009487  00000-0  61296-3 0  9999,2 52575  53.2155  72.5240 0001316  85.0306 275.0836 15.08861805104198,6917.814,95.436,540.589,538.768,0.0
52575.0,STARLINK-3920,PAYLOAD,2024-03-28 15:56:37,15.08856573,0.0001438,53.2161,71.0376,79.9179,280.1976,0.00030909,4.637e-05,0.0,0 STARLINK-3920,1 52575U 22051AR  24088.66431994  .00004637  00000-0  30909-3 0  9992,2 52575  53.2161  71.0376 0001438  79.9179 280.1976 15.08856573104248,6917.83,95.437,540.69,538.7,0.0
